STARLINK-2562_new
1 18288C 21036N   21326.18112747  .00007256  00000-0  48625-3 0  3269
2 18288  53.0550 282.9229 0001868  68.2433 159.4278 15.06384251    15
STARLINK-2562_old
1 28288C 21036N   21325.13350888  .00002262  00000-0  15154-3 0  3255
2 28288  53.0551 287.6255 0001890  69.7182 233.4929 15.06403802    19
